NORAD_CAT_ID,OBJECT_NAME,OBJECT_TYPE,EPOCH,MEAN_MOTION,ECCENTRICITY,INCLINATION,RA_OF_ASC_NODE,ARG_OF_PERICENTER,MEAN_ANOMALY,BSTAR,MEAN_MOTION_DOT,MEAN_MOTION_DDOT,TLE_LINE0,TLE_LINE1,TLE_LINE2,SEMIMAJOR_AXIS,PERIOD,APOGEE,PERIGEE,DECAYED
53898.0,STARLINK-5044,PAYLOAD,2023-06-27 09:48:33,15.08840153,8.51e-05,53.2167,71.4273,92.4952,267.6137,-1.9613e-05,-6e-06,0.0,0 STARLINK-5044,1 53898U 22119N   23178.40872523 -.00000600  00000-0 -19613-4 0  9992,2 53898  53.2167  71.4273 0000851  92.4952 267.6137 15.08840153 42371,6917.88,95.438,540.334,539.156,0.0
53898.0,STARLINK-5044,PAYLOAD,2023-06-29 01:33:12,15.08843063,8.92e-05,53.217,63.9923,95.2808,264.8286,2.7266e-05,1.46e-06,0.0,0 STARLINK-5044,1 53898U 22119N   23180.06472723  .00000146  00000-0  27266-4 0  9991,2 53898  53.2170  63.9923 0000892  95.2808 264.8286 15.08843063 42624,6917.871,95.437,540.353,539.119,0.0
53898.0,STARLINK-5044,PAYLOAD,2023-06-30 15:42:27,15.08841127,9.05e-05,53.2167,56.8569,92.7051,267.4045,-1.548e-05,-5.34e-06,0.0,0 STARLINK-5044,1 53898U 22119N   23181.65448941 -.00000534  00000-0 -15480-4 0  9990,2 53898  53.2167  56.8569 0000905  92.7051 267.4045 15.08841127 42861,6917.877,95.437,540.368,539.116,0.0
53898.0,STARLINK-5044,PAYLOAD,2023-07-01 18:44:01,15.08834415,0.0001062,53.2163,51.8009,87.7432,272.3681,-5.2577e-05,-1.124e-05,0.0,0 STARLINK-5044,1 53898U 22119N   23182.78057370 -.00001124  00000-0 -52577-4 0  9991,2 53898  53.2163  51.8009 0001062  87.7432 272.3681 15.08834415 43036,6917.897,95.438,540.497,539.028,0.0
53898.0,STARLINK-5044,PAYLOAD,2023-07-02 21:45:34,15.0884277,0.0001132,53.2182,46.746,83.2759,276.8362,-9.9349e-07,-3.04e-06,0.0,0 STARLINK-5044,1 53898U 22119N   23183.90664820 -.00000304  00000-0 -99349-6 0  9999,2 53898  53.2182  46.7460 0001132  83.2759 276.8362 15.08842770 43209,6917.872,95.437,540.52,538.954,0.0
53898.0,STARLINK-5044,PAYLOAD,2023-07-03 07:17:53,15.08831351,0.0001634,53.217,44.9592,83.4508,276.667,-4.5226e-05,-1.008e-05,0.0,0 STARLINK-5044,1 53898U 22119N   23184.30409712 -.00001008  00000-0 -45226-4 0  9996,2 53898  53.2170  44.9592 0001634  83.4508 276.6670 15.08831351 43262,6917.907,95.438,540.902,538.641,0.0
53898.0,STARLINK-5044,PAYLOAD,2023-07-03 21:36:21,15.08839784,0.0001041,53.2176,42.2848,79.9329,280.178,6.6063e-05,7.64e-06,0.0,0 STARLINK-5044,1 53898U 22119N   23184.90024830  .00000764  00000-0  66063-4 0  9994,2 53898  53.2176  42.2848 0001041  79.9329 280.1780 15.08839784 43356,6917.881,95.438,540.466,539.026,0.0
53898.0,STARLINK-5044,PAYLOAD,2023-07-05 00:37:54,15.08841249,9.86e-05,53.2176,37.23,88.522,271.5885,1.351e-05,-7.3e-07,0.0,0 STARLINK-5044,1 53898U 22119N   23186.02633053 -.00000073  00000-0  13510-4 0  9995,2 53898  53.2176  37.2300 0000986  88.5220 271.5885 15.08841249 43524,6917.877,95.437,540.424,539.059,0.0
53898.0,STARLINK-5044,PAYLOAD,2023-07-05 06:59:27,15.08837537,0.0001016,53.2172,36.0403,87.1535,272.9573,-6.2634e-05,-1.284e-05,0.0,0 STARLINK-5044,1 53898U 22119N   23186.29129592 -.00001284  00000-0 -62634-4 0  9999,2 53898  53.2172  36.0403 0001016  87.1535 272.9573 15.08837537 43568,6917.888,95.438,540.456,539.05,0.0
53898.0,STARLINK-5044,PAYLOAD,2023-07-06 13:11:47,15.08834574,9.52e-05,53.2174,30.3901,87.2753,272.8348,6.4642e-05,7.41e-06,0.0,0 STARLINK-5044,1 53898U 22119N   23187.54985728  .00000741  00000-0  64642-4 0  9995,2 53898  53.2174  30.3901 0000952  87.2753 272.8348 15.08834574 43759,6917.897,95.438,540.421,539.103,0.0
53898.0,STARLINK-5044,PAYLOAD,2023-07-07 00:19:29,15.08838294,0.0001045,53.2175,28.3085,95.0236,265.0875,0.00020209,2.93e-05,0.0,0 STARLINK-5044,1 53898U 22119N   23188.01353026  .00002930  00000-0  20209-3 0  9990,2 53898  53.2175  28.3085 0001045  95.0236 265.0875 15.08838294 43827,6917.886,95.438,540.474,539.028,0.0
53898.0,STARLINK-5044,PAYLOAD,2023-07-07 17:48:43,15.08836326,0.0001048,53.2187,25.0392,95.1291,264.9821,8.0315e-05,9.91e-06,0.0,0 STARLINK-5044,1 53898U 22119N   23188.74217547  .00000991  00000-0  80315-4 0  9997,2 53898  53.2187  25.0392 0001048  95.1291 264.9821 15.08836326 43935,6917.892,95.438,540.482,539.032,0.0
53898.0,STARLINK-5044,PAYLOAD,2023-07-08 19:14:54,15.08836107,0.0001023,53.2173,20.2803,85.0915,275.0194,-3.5807e-05,-8.58e-06,0.0,0 STARLINK-5044,1 53898U 22119N   23189.80202054 -.00000858  00000-0 -35807-4 0  9992,2 53898  53.2173  20.2803 0001023  85.0915 275.0194 15.08836107 44099,6917.892,95.438,540.465,539.05,0.0
53898.0,STARLINK-5044,PAYLOAD,2023-07-10 18:56:28,15.08840207,0.0001003,53.2179,11.3589,81.7801,278.3305,8.207e-05,1.019e-05,0.0,0 STARLINK-5044,1 53898U 22119N   23191.78921657  .00001019  00000-0  82070-4 0  9991,2 53898  53.2179  11.3589 0001003  81.7801 278.3305 15.08840207 44391,6917.88,95.438,540.439,539.051,0.0
53898.0,STARLINK-5044,PAYLOAD,2023-07-11 10:50:20,15.08832143,8.38e-05,53.2182,8.386,96.4415,263.6673,2.1194e-05,5e-07,0.0,0 STARLINK-5044,1 53898U 22119N   23192.45162410  .00000050  00000-0  21194-4 0  9994,2 53898  53.2182   8.3860 0000838  96.4415 263.6673 15.08832143 44498,6917.904,95.438,540.349,539.19,0.0
53898.0,STARLINK-5044,PAYLOAD,2023-07-11 18:47:15,15.08840429,9.64e-05,53.2184,6.8994,87.3778,272.7325,4.2815e-05,3.94e-06,0.0,0 STARLINK-5044,1 53898U 22119N   23192.78281931  .00000394  00000-0  42815-4 0  9994,2 53898  53.2184   6.8994 0000964  87.3778 272.7325 15.08840429 44549,6917.879,95.438,540.411,539.077,0.0
53898.0,STARLINK-5044,PAYLOAD,2023-07-13 16:53:27,15.08836066,8.84e-05,53.218,358.2751,93.6259,266.4834,-2.7022e-05,-7.18e-06,0.0,0 STARLINK-5044,1 53898U 22119N   23194.70378676 -.00000718  00000-0 -27022-4 0  9996,2 53898  53.2180 358.2751 0000884  93.6259 266.4834 15.08836066 44834,6917.892,95.438,540.369,539.146,0.0
53898.0,STARLINK-5044,PAYLOAD,2023-07-14 18:19:36,15.08846781,9.46e-05,53.2179,353.5172,85.0219,275.0881,9.3859e-06,-1.38e-06,0.0,0 STARLINK-5044,1 53898U 22119N   23195.76362120 -.00000138  00000-0  93859-5 0  9997,2 53898  53.2179 353.5172 0000946  85.0219 275.0881 15.08846781 44997,6917.86,95.437,540.379,539.07,0.0
53898.0,STARLINK-5044,PAYLOAD,2023-07-15 03:51:55,15.08841296,9.87e-05,53.2179,351.7338,82.7206,277.3899,2.9176e-06,-2.41e-06,0.0,0 STARLINK-5044,1 53898U 22119N   23196.16106422 -.00000241  00000-0  29176-5 0  9999,2 53898  53.2179 351.7338 0000987  82.7206 277.3899 15.08841296 45054,6917.876,95.437,540.424,539.059,0.0
53898.0,STARLINK-5044,PAYLOAD,2023-07-16 10:04:16,15.08833681,0.0001077,53.2175,346.0846,78.7073,281.404,-2.2864e-05,-6.52e-06,0.0,0 STARLINK-5044,1 53898U 22119N   23197.41963179 -.00000652  00000-0 -22864-4 0  9991,2 53898  53.2175 346.0846 0001077  78.7073 281.4040 15.08833681 45243,6917.9,95.438,540.51,539.02,0.0
53898.0,STARLINK-5044,PAYLOAD,2023-07-16 21:11:57,15.08844899,0.0001055,53.2178,344.0017,89.6918,270.4195,1.4903e-05,-5.1e-07,0.0,0 STARLINK-5044,1 53898U 22119N   23197.88330337 -.00000051  00000-0  14903-4 0  9993,2 53898  53.2178 344.0017 0001055  89.6918 270.4195 15.08844899 45319,6917.865,95.437,540.46,539.001,0.0
53898.0,STARLINK-5044,PAYLOAD,2023-07-17 09:55:02,15.08836602,0.0001157,53.2185,341.622,94.0187,266.0937,1.1661e-06,-2.69e-06,0.0,0 STARLINK-5044,1 53898U 22119N   23198.41322913 -.00000269  00000-0  11661-5 0  9994,2 53898  53.2185 341.6220 0001157  94.0187 266.0937 15.08836602 45393,6917.891,95.438,540.556,538.955,0.0
53898.0,STARLINK-5044,PAYLOAD,2023-07-17 16:16:34,15.08845212,0.0001141,53.2185,340.433,93.315,266.7973,6.9924e-05,8.25e-06,0.0,0 STARLINK-5044,1 53898U 22119N   23198.67818111  .00000825  00000-0  69924-4 0  9993,2 53898  53.2185 340.4330 0001141  93.3150 266.7973 15.08845212 45436,6917.864,95.437,540.519,538.94,0.0
53898.0,STARLINK-5044,PAYLOAD,2023-07-17 21:02:43,15.08853613,0.000104,53.2184,339.5406,90.4789,269.6323,6.7362e-05,7.85e-06,0.0,0 STARLINK-5044,1 53898U 22119N   23198.87689497  .00000785  00000-0  67362-4 0  9997,2 53898  53.2184 339.5406 0001040  90.4789 269.6323 15.08853613 45460,6917.839,95.437,540.423,538.984,0.0
53898.0,STARLINK-5044,PAYLOAD,2023-07-18 14:31:59,15.08836886,0.0001203,53.2184,336.2703,88.0611,272.0519,2.4374e-05,1e-06,0.0,0 STARLINK-5044,1 53898U 22119N   23199.60554719  .00000100  00000-0  24374-4 0  9994,2 53898  53.2184 336.2703 0001203  88.0611 272.0519 15.08836886 45572,6917.89,95.438,540.587,538.923,0.0
53898.0,STARLINK-5044,PAYLOAD,2023-07-18 20:53:30,15.08849495,0.0001178,53.2188,335.0801,93.186,266.9267,8.0789e-05,9.98e-06,0.0,0 STARLINK-5044,1 53898U 22119N   23199.87049642  .00000998  00000-0  80789-4 0  9994,2 53898  53.2188 335.0801 0001178  93.1860 266.9267 15.08849495 45613,6917.851,95.437,540.531,538.901,0.0
53898.0,STARLINK-5044,PAYLOAD,2023-07-19 09:36:38,15.08818711,0.0001045,53.2184,332.7026,99.8589,260.2521,-0.00011424,-2.104e-05,0.0,0 STARLINK-5044,1 53898U 22119N   23200.40044458 -.00002104  00000-0 -11424-3 0  9998,2 53898  53.2184 332.7026 0001045  99.8589 260.2521 15.08818711 45691,6917.945,95.439,540.533,539.088,0.0
53898.0,STARLINK-5044,PAYLOAD,2023-07-19 15:58:10,15.08831313,0.0001206,53.2191,331.5122,104.6893,255.4233,-0.00011539,-2.123e-05,0.0,0 STARLINK-5044,1 53898U 22119N   23200.66539909 -.00002123  00000-0 -11539-3 0  9994,2 53898  53.2191 331.5122 0001206 104.6893 255.4233 15.08831313 45739,6917.907,95.438,540.606,538.938,0.0
53898.0,STARLINK-5044,PAYLOAD,2023-07-20 18:59:42,15.08869055,0.0001971,53.2188,326.4573,139.7263,220.3875,-0.00020258,-3.514e-05,0.0,0 STARLINK-5044,1 53898U 22119N   23201.79145975 -.00003514  00000-0 -20258-3 0  9998,2 53898  53.2188 326.4573 0001971 139.7263 220.3875 15.08869055 45903,6917.792,95.436,541.02,538.293,0.0
53898.0,STARLINK-5044,PAYLOAD,2023-07-20 20:35:05,15.08851156,0.0001144,53.2186,326.1601,98.7173,261.3949,7.9752e-05,9.82e-06,0.0,0 STARLINK-5044,1 53898U 22119N   23201.85770292  .00000982  00000-0  79752-4 0  9999,2 53898  53.2186 326.1601 0001144  98.7173 261.3949 15.08851156 45917,6917.846,95.437,540.503,538.92,0.0
